[{"OBJECT_NAME":"OBJECT D","OBJECT_ID":"2024-174D","EPOCH":"2026-03-10T00:15:10.483200","MEAN_MOTION":15.28039787,"ECCENTRICITY":0.00110644,"INCLINATION":97.4441,"RA_OF_ASC_NODE":80.4677,"ARG_OF_PERICENTER":212.9968,"MEAN_ANOMALY":147.0582,"EPHEMERIS_TYPE":0,"CLASSIFICATION_TYPE":"U","NORAD_CAT_ID":61241,"ELEMENT_SET_NO":999,"REV_AT_EPOCH":8076,"BSTAR":0.00036340099,"MEAN_MOTION_DOT":9.884e-5,"MEAN_MOTION_DDOT":0},{"OBJECT_NAME":"STARLINK-32434","OBJECT_ID":"2024-207B","EPOCH":"2026-03-09T22:03:59.627232","MEAN_MOTION":15.27610225,"ECCENTRICITY":0.00026009,"INCLINATION":43.0007,"RA_OF_ASC_NODE":280.7565,"ARG_OF_PERICENTER":253.1903,"MEAN_ANOMALY":106.8663,"EPHEMERIS_TYPE":0,"CLASSIFICATION_TYPE":"U","NORAD_CAT_ID":61913,"ELEMENT_SET_NO":999,"REV_AT_EPOCH":7475,"BSTAR":0.0013969795,"MEAN_MOTION_DOT":0.00038418,"MEAN_MOTION_DDOT":0}]
